OBJECT_NAME,OBJECT_ID,EPOCH,MEAN_MOTION,ECCENTRICITY,INCLINATION,RA_OF_ASC_NODE,ARG_OF_PERICENTER,MEAN_ANOMALY,EPHEMERIS_TYPE,CLASSIFICATION_TYPE,NORAD_CAT_ID,ELEMENT_SET_NO,REV_AT_EPOCH,BSTAR,MEAN_MOTION_DOT,MEAN_MOTION_DDOT
FENGYUN 3D,2017-072A,2026-07-08T13:43:11.741952,14.19742771,.00018959,99.0140,164.3815,27.3517,332.7758,0,U,43010,999,44802,-.33726946E-4,-.118E-5,0
NOAA 20 (JPSS-1),2017-073A,2026-07-08T11:59:29.935392,14.19515613,.00011271,98.7773,128.7732,129.9126,230.2149,0,U,43013,999,44749,.39706533E-4,.4E-6,0
GOES 17,2018-022A,2026-07-08T13:16:30.218592,1.00271509,.00006011,0.9884,85.3672,67.8599,242.9102,0,U,43226,999,3063,0,-.168E-5,0
SENTINEL-3B,2018-039A,2026-07-08T10:32:13.711776,14.26740744,.00009905,98.6239,256.6655,119.7296,240.3983,0,U,43437,999,42715,.40925441E-4,.55E-6,0
FENGYUN 2H,2018-050A,2026-07-08T14:04:37.259040,1.00268275,.00020927,3.0828,78.8299,126.2079,11.8847,0,U,43491,999,2965,0,-.115E-5,0
METOP-C,2018-087A,2026-07-08T12:52:04.392480,14.21517840,.0002211,98.6633,248.7484,102.2878,257.8547,0,U,43689,999,39786,.4941773E-4,.65E-6,0
GEO-KOMPSAT-2A,2018-100A,2026-07-08T12:24:31.970016,1.00270456,.00022991,0.0277,148.8754,311.3058,140.6822,0,U,43823,999,2784,0,-.329E-5,0
METEOR-M2 2,2019-038A,2026-07-08T14:23:13.545312,14.24371312,.00011269,98.9160,177.2017,15.9426,344.1787,0,U,44387,999,36434,.21468917E-4,.4E-7,0
ARKTIKA-M 1,2021-016A,2026-07-07T10:17:34.884672,2.00614486,.72950864,63.2524,54.6812,270.0380,14.5466,0,U,47719,999,3919,0,-.257E-5,0
FENGYUN 3E,2021-062A,2026-07-08T13:16:33.265920,14.19906980,.00025143,98.7503,192.7230,50.0396,310.1001,0,U,49008,999,25961,.13733032E-3,.248E-5,0
GOES 18,2022-021A,2026-07-07T23:21:43.013664,1.00271486,.0000562,0.0081,185.3359,351.8450,322.1729,0,U,51850,999,680,0,.112E-5,0
NOAA 21 (JPSS-2),2022-150A,2026-07-08T12:46:09.779232,14.19540350,.00026684,98.7061,127.9627,116.4181,243.7270,0,U,54234,999,18957,.30256645E-4,.2E-6,0
METEOSAT-12 (MTG-I1),2022-170C,2026-07-08T06:51:17.375328,1.00266668,.00039371,0.7177,18.4348,82.7656,287.6501,0,U,54743,999,1319,0,.7E-7,0
TIANMU-1 03,2023-039A,2026-07-08T13:57:33.285600,15.47910432,.00031315,97.5246,4.3988,43.4260,316.7236,0,U,55973,999,18414,.21759485E-3,.11243E-3,0
TIANMU-1 04,2023-039B,2026-07-08T13:30:18.378144,15.48527138,.00036554,97.5179,3.5349,37.0184,323.1318,0,U,55974,999,18415,.19929838E-3,.10514E-3,0
TIANMU-1 05,2023-039C,2026-07-08T11:58:16.144608,15.47829819,.00035107,97.5224,3.9199,63.9584,296.2027,0,U,55975,999,18411,.19151791E-3,.9856E-4,0
TIANMU-1 06,2023-039D,2026-07-08T13:37:08.415264,15.48425396,.00036621,97.5232,4.6489,56.5304,303.6296,0,U,55976,999,18415,.20146506E-3,.10591E-3,0
FENGYUN 3G,2023-055A,2026-07-08T14:17:33.648576,15.53583072,.00072025,49.9917,235.6351,26.4450,333.6884,0,U,56232,999,18333,.23938804E-3,.15128E-3,0
METEOR-M2 3,2023-091A,2026-07-08T14:22:09.408000,14.24048570,.00051232,98.6076,244.1377,105.0711,255.1035,0,U,57166,999,15756,.10985727E-4,-.18E-6,0
TIANMU-1 07,2023-101A,2026-07-08T13:16:11.117280,15.30062802,.00041069,97.2583,239.7321,78.1834,281.9867,0,U,57399,999,16491,.13729779E-3,.3921E-4,0
TIANMU-1 08,2023-101B,2026-07-08T12:28:03.966240,15.30066431,.00051314,97.2572,239.4669,63.7377,296.4391,0,U,57400,999,16490,.13366835E-3,.3816E-4,0
TIANMU-1 09,2023-101C,2026-07-08T13:37:39.845856,15.30107168,.00047022,97.2530,238.9191,79.6489,280.5281,0,U,57401,999,16491,.1524309E-3,.4368E-4,0
TIANMU-1 10,2023-101D,2026-07-08T14:25:48.222048,15.30079800,.00060916,97.2609,240.0240,71.6694,288.5209,0,U,57402,999,16491,.14398736E-3,.4119E-4,0
FENGYUN 3F,2023-111A,2026-07-08T14:34:07.805856,14.19942773,.00014021,98.6828,259.2159,79.3174,280.8161,0,U,57490,999,15190,.29146018E-4,.19E-6,0
ARKTIKA-M 2,2023-198A,2026-07-08T04:42:49.048128,2.00608968,.69084583,63.2191,152.0158,267.3598,18.7565,0,U,58584,999,1874,0,.204E-5,0
TIANMU-1 11,2023-205A,2026-07-08T14:40:27.455232,15.27219928,.0006819,97.3447,210.8339,292.0289,68.0226,0,U,58645,999,14079,.14198497E-3,.3716E-4,0
TIANMU-1 12,2023-205B,2026-07-08T13:59:39.564384,15.27049758,.0005495,97.3435,210.5556,265.2648,94.7963,0,U,58646,999,14077,.14599511E-3,.3802E-4,0
TIANMU-1 13,2023-205C,2026-07-08T14:47:46.173696,15.27042636,.00052124,97.3464,210.8661,241.0354,119.0363,0,U,58647,999,14077,.14727073E-3,.3835E-4,0
TIANMU-1 14,2023-205D,2026-07-08T14:25:34.040352,15.27085917,.00059057,97.3399,210.0159,249.1558,110.9049,0,U,58648,999,14077,.13722164E-3,.3574E-4,0
TIANMU-1 19,2023-208A,2026-07-08T14:00:37.619136,15.31906338,.00039767,97.4514,305.9994,224.9950,135.0970,0,U,58660,999,14060,.18062121E-3,.5485E-4,0
