FENGYUN 3D              
1 43010U 17072A   26189.57166368 -.00000118  00000+0 -33727-4 0  9990
2 43010  99.0140 164.3815 0001895  27.3517 332.7758 14.19742771448025
NOAA 20 (JPSS-1)        
1 43013U 17073A   26189.49965203  .00000040  00000+0  39707-4 0  9996
2 43013  98.7773 128.7732 0001127 129.9126 230.2149 14.19515613447490
GOES 17                 
1 43226U 18022A   26189.55312753 -.00000168  00000+0  00000+0 0  9991
2 43226   0.9884  85.3672 0000601  67.8599 242.9102  1.00271509 30637
SENTINEL-3B             
1 43437U 18039A   26189.43904759  .00000055  00000+0  40925-4 0  9992
2 43437  98.6239 256.6655 0000990 119.7296 240.3983 14.26740744427155
FENGYUN 2H              
1 43491U 18050A   26189.58654235 -.00000115  00000+0  00000+0 0  9995
2 43491   3.0828  78.8299 0002092 126.2079  11.8847  1.00268275 29659
METOP-C                 
1 43689U 18087A   26189.53616195  .00000065  00000+0  49418-4 0  9996
2 43689  98.6633 248.7484 0002211 102.2878 257.8547 14.21517840397862
GEO-KOMPSAT-2A          
1 43823U 18100A   26189.51703669 -.00000329  00000+0  00000+0 0  9996
2 43823   0.0277 148.8754 0002299 311.3058 140.6822  1.00270456 27847
METEOR-M2 2             
1 44387U 19038A   26189.59946233  .00000004  00000+0  21469-4 0  9993
2 44387  98.9160 177.2017 0001126  15.9426 344.1787 14.24371312364345
ARKTIKA-M 1             
1 47719U 21016A   26188.42887598 -.00000257  00000+0  00000+0 0  9997
2 47719  63.2524  54.6812 7295086 270.0380  14.5466  2.00614486 39194
FENGYUN 3E              
1 49008U 21062A   26189.55316280  .00000248  00000+0  13733-3 0  9991
2 49008  98.7503 192.7230 0002514  50.0396 310.1001 14.19906980259610
GOES 18                 
1 51850U 22021A   26188.97341451  .00000112  00000+0  00000+0 0  9997
2 51850   0.0081 185.3359 0000562 351.8450 322.1729  1.00271486  6802
NOAA 21 (JPSS-2)        
1 54234U 22150A   26189.53205763  .00000020  00000+0  30257-4 0  9997
2 54234  98.7061 127.9627 0002668 116.4181 243.7270 14.19540350189576
METEOSAT-12 (MTG-I1)    
1 54743U 22170C   26189.28561777  .00000007  00000+0  00000+0 0  9999
2 54743   0.7177  18.4348 0003937  82.7656 287.6501  1.00266668 13199
TIANMU-1 03             
1 55973U 23039A   26189.58163525  .00011243  00000+0  21759-3 0  9994
2 55973  97.5246   4.3988 0003131  43.4260 316.7236 15.47910432184145
TIANMU-1 04             
1 55974U 23039B   26189.56271271  .00010514  00000+0  19930-3 0  9999
2 55974  97.5179   3.5349 0003655  37.0184 323.1318 15.48527138184150
TIANMU-1 05             
1 55975U 23039C   26189.49879797  .00009856  00000+0  19152-3 0  9992
2 55975  97.5224   3.9199 0003510  63.9584 296.2027 15.47829819184114
TIANMU-1 06             
1 55976U 23039D   26189.56745851  .00010591  00000+0  20147-3 0  9998
2 55976  97.5232   4.6489 0003662  56.5304 303.6296 15.48425396184158
FENGYUN 3G              
1 56232U 23055A   26189.59552834  .00015128  00000+0  23939-3 0  9995
2 56232  49.9917 235.6351 0007202  26.4450 333.6884 15.53583072183338
METEOR-M2 3             
1 57166U 23091A   26189.59872000 -.00000018  00000+0  10986-4 0  9994
2 57166  98.6076 244.1377 0005123 105.0711 255.1035 14.24048570157567
TIANMU-1 07             
1 57399U 23101A   26189.55290645  .00003921  00000+0  13730-3 0  9993
2 57399  97.2583 239.7321 0004106  78.1834 281.9867 15.30062802164917
TIANMU-1 08             
1 57400U 23101B   26189.51949035  .00003816  00000+0  13367-3 0  9995
2 57400  97.2572 239.4669 0005131  63.7377 296.4391 15.30066431164905
TIANMU-1 09             
1 57401U 23101C   26189.56782229  .00004368  00000+0  15243-3 0  9999
2 57401  97.2530 238.9191 0004702  79.6489 280.5281 15.30107168164913
TIANMU-1 10             
1 57402U 23101D   26189.60125257  .00004119  00000+0  14399-3 0  9992
2 57402  97.2609 240.0240 0006091  71.6694 288.5209 15.30079800164912
FENGYUN 3F              
1 57490U 23111A   26189.60703479  .00000019  00000+0  29146-4 0  9990
2 57490  98.6828 259.2159 0001402  79.3174 280.8161 14.19942773151908
ARKTIKA-M 2             
1 58584U 23198A   26189.19640102  .00000204  00000+0  00000+0 0  9996
2 58584  63.2191 152.0158 6908458 267.3598  18.7565  2.00608968 18747
TIANMU-1 11             
1 58645U 23205A   26189.61142888  .00003716  00000+0  14198-3 0  9996
2 58645  97.3447 210.8339 0006819 292.0289  68.0226 15.27219928140797
TIANMU-1 12             
1 58646U 23205B   26189.58309681  .00003802  00000+0  14600-3 0  9993
2 58646  97.3435 210.5556 0005495 265.2648  94.7963 15.27049758140777
TIANMU-1 13             
1 58647U 23205C   26189.61650664  .00003835  00000+0  14727-3 0  9994
2 58647  97.3464 210.8661 0005212 241.0354 119.0363 15.27042636140776
TIANMU-1 14             
1 58648U 23205D   26189.60108843  .00003574  00000+0  13722-3 0  9995
2 58648  97.3399 210.0159 0005905 249.1558 110.9049 15.27085917140772
TIANMU-1 19             
1 58660U 23208A   26189.58376874  .00005485  00000+0  18062-3 0  9995
2 58660  97.4514 305.9994 0003976 224.9950 135.0970 15.31906338140607
